[{"OBJECT_NAME":"STARLINK-31376","OBJECT_ID":"2024-073P","EPOCH":"2025-08-13T14:00:01.999872","MEAN_MOTION":15.5546834,"ECCENTRICITY":0.0024471,"INCLINATION":42.9917,"RA_OF_ASC_NODE":42.8127,"ARG_OF_PERICENTER":296.5739,"MEAN_ANOMALY":257.4716,"EPHEMERIS_TYPE":0,"CLASSIFICATION_TYPE":"U","NORAD_CAT_ID":59524,"ELEMENT_SET_NO":999,"REV_AT_EPOCH":587,"BSTAR":0.00372,"MEAN_MOTION_DOT":0.00272576,"MEAN_MOTION_DDOT":0},{"OBJECT_NAME":"STARLINK-31538","OBJECT_ID":"2024-073Q","EPOCH":"2025-08-13T12:53:34.036800","MEAN_MOTION":15.27582908,"ECCENTRICITY":0.0001634,"INCLINATION":43,"RA_OF_ASC_NODE":53.3611,"ARG_OF_PERICENTER":291.4948,"MEAN_ANOMALY":68.573,"EPHEMERIS_TYPE":0,"CLASSIFICATION_TYPE":"U","NORAD_CAT_ID":59525,"ELEMENT_SET_NO":999,"REV_AT_EPOCH":7434,"BSTAR":0.00013088,"MEAN_MOTION_DOT":3.341e-5,"MEAN_MOTION_DDOT":0},{"OBJECT_NAME":"STARLINK-31564","OBJECT_ID":"2024-073R","EPOCH":"2025-08-13T12:42:27.885888","MEAN_MOTION":15.27578299,"ECCENTRICITY":0.0001458,"INCLINATION":43.0011,"RA_OF_ASC_NODE":53.3024,"ARG_OF_PERICENTER":266.9703,"MEAN_ANOMALY":93.0982,"EPHEMERIS_TYPE":0,"CLASSIFICATION_TYPE":"U","NORAD_CAT_ID":59526,"ELEMENT_SET_NO":999,"REV_AT_EPOCH":7434,"BSTAR":4.7154e-5,"MEAN_MOTION_DOT":1.036e-5,"MEAN_MOTION_DDOT":0},{"OBJECT_NAME":"STARLINK-31452","OBJECT_ID":"2024-073S","EPOCH":"2025-08-13T13:45:22.815936","MEAN_MOTION":15.27572728,"ECCENTRICITY":0.0001199,"INCLINATION":43.004,"RA_OF_ASC_NODE":53.6291,"ARG_OF_PERICENTER":270.6106,"MEAN_ANOMALY":89.4608,"EPHEMERIS_TYPE":0,"CLASSIFICATION_TYPE":"U","NORAD_CAT_ID":59527,"ELEMENT_SET_NO":999,"REV_AT_EPOCH":7434,"BSTAR":-2.9503e-5,"MEAN_MOTION_DOT":-1.074e-5,"MEAN_MOTION_DDOT":0},{"OBJECT_NAME":"STARLINK-31618","OBJECT_ID":"2024-073T","EPOCH":"2025-08-13T13:18:50.138208","MEAN_MOTION":15.32400717,"ECCENTRICITY":0.0006154,"INCLINATION":42.9999,"RA_OF_ASC_NODE":51.7681,"ARG_OF_PERICENTER":267.6985,"MEAN_ANOMALY":92.3164,"EPHEMERIS_TYPE":0,"CLASSIFICATION_TYPE":"U","NORAD_CAT_ID":59528,"ELEMENT_SET_NO":999,"REV_AT_EPOCH":7436,"BSTAR":0.003008,"MEAN_MOTION_DOT":0.00097126,"MEAN_MOTION_DDOT":0},{"OBJECT_NAME":"STARLINK-31513","OBJECT_ID":"2024-073U","EPOCH":"2025-08-13T12:08:12.086016","MEAN_MOTION":15.2757632,"ECCENTRICITY":0.0001647,"INCLINATION":43.0044,"RA_OF_ASC_NODE":50.4855,"ARG_OF_PERICENTER":279.1873,"MEAN_ANOMALY":80.8792,"EPHEMERIS_TYPE":0,"CLASSIFICATION_TYPE":"U","NORAD_CAT_ID":59529,"ELEMENT_SET_NO":999,"REV_AT_EPOCH":7437,"BSTAR":1.1689e-5,"MEAN_MOTION_DOT":5.9e-7,"MEAN_MOTION_DDOT":0},{"OBJECT_NAME":"STARLINK-31392","OBJECT_ID":"2024-073V","EPOCH":"2025-08-13T13:19:28.174080","MEAN_MOTION":15.27575798,"ECCENTRICITY":0.0001388,"INCLINATION":43.0007,"RA_OF_ASC_NODE":53.4904,"ARG_OF_PERICENTER":268.725,"MEAN_ANOMALY":91.3443,"EPHEMERIS_TYPE":0,"CLASSIFICATION_TYPE":"U","NORAD_CAT_ID":59530,"ELEMENT_SET_NO":999,"REV_AT_EPOCH":7434,"BSTAR":-9.8054e-6,"MEAN_MOTION_DOT":-5.32e-6,"MEAN_MOTION_DDOT":0},{"OBJECT_NAME":"STARLINK-31619","OBJECT_ID":"2024-073W","EPOCH":"2025-08-13T05:08:19.840992","MEAN_MOTION":15.27579246,"ECCENTRICITY":0.0001682,"INCLINATION":43.0007,"RA_OF_ASC_NODE":55.2356,"ARG_OF_PERICENTER":264.3499,"MEAN_ANOMALY":95.7161,"EPHEMERIS_TYPE":0,"CLASSIFICATION_TYPE":"U","NORAD_CAT_ID":59531,"ELEMENT_SET_NO":999,"REV_AT_EPOCH":7541,"BSTAR":6.7318e-5,"MEAN_MOTION_DOT":1.591e-5,"MEAN_MOTION_DDOT":0},{"OBJECT_NAME":"STARLINK-31624","OBJECT_ID":"2024-073X","EPOCH":"2025-08-13T10:44:54.542400","MEAN_MOTION":15.76327762,"ECCENTRICITY":0.0019076,"INCLINATION":42.9934,"RA_OF_ASC_NODE":22.1278,"ARG_OF_PERICENTER":324.4309,"MEAN_ANOMALY":65.3666,"EPHEMERIS_TYPE":0,"CLASSIFICATION_TYPE":"U","NORAD_CAT_ID":59532,"ELEMENT_SET_NO":999,"REV_AT_EPOCH":7588,"BSTAR":0.0059179,"MEAN_MOTION_DOT":0.0108009,"MEAN_MOTION_DDOT":0},{"OBJECT_NAME":"STARLINK-31509","OBJECT_ID":"2024-073Y","EPOCH":"2025-08-13T13:56:29.217408","MEAN_MOTION":15.27567951,"ECCENTRICITY":0.0001201,"INCLINATION":43.003,"RA_OF_ASC_NODE":53.7003,"ARG_OF_PERICENTER":281.1848,"MEAN_ANOMALY":78.8868,"EPHEMERIS_TYPE":0,"CLASSIFICATION_TYPE":"U","NORAD_CAT_ID":59533,"ELEMENT_SET_NO":999,"REV_AT_EPOCH":7434,"BSTAR":0.00013601,"MEAN_MOTION_DOT":3.481e-5,"MEAN_MOTION_DDOT":0},{"OBJECT_NAME":"STARLINK-31734","OBJECT_ID":"2024-074A","EPOCH":"2025-08-13T06:14:05.090496","MEAN_MOTION":15.27574789,"ECCENTRICITY":0.0001194,"INCLINATION":43.0009,"RA_OF_ASC_NODE":69.7303,"ARG_OF_PERICENTER":262.0283,"MEAN_ANOMALY":98.0433,"EPHEMERIS_TYPE":0,"CLASSIFICATION_TYPE":"U","NORAD_CAT_ID":59534,"ELEMENT_SET_NO":999,"REV_AT_EPOCH":7426,"BSTAR":9.6377e-5,"MEAN_MOTION_DOT":2.391e-5,"MEAN_MOTION_DDOT":0},{"OBJECT_NAME":"STARLINK-31738","OBJECT_ID":"2024-074B","EPOCH":"2025-08-13T06:38:34.810656","MEAN_MOTION":15.27597263,"ECCENTRICITY":0.000118,"INCLINATION":42.9976,"RA_OF_ASC_NODE":76.6955,"ARG_OF_PERICENTER":3.8876,"MEAN_ANOMALY":356.1985,"EPHEMERIS_TYPE":0,"CLASSIFICATION_TYPE":"U","NORAD_CAT_ID":59535,"ELEMENT_SET_NO":999,"REV_AT_EPOCH":7418,"BSTAR":0.00019694,"MEAN_MOTION_DOT":5.164e-5,"MEAN_MOTION_DDOT":0},{"OBJECT_NAME":"STARLINK-31721","OBJECT_ID":"2024-074C","EPOCH":"2025-08-12T22:50:48.439392","MEAN_MOTION":15.27582018,"ECCENTRICITY":0.0001743,"INCLINATION":43.0028,"RA_OF_ASC_NODE":82.1021,"ARG_OF_PERICENTER":296.5589,"MEAN_ANOMALY":63.5084,"EPHEMERIS_TYPE":0,"CLASSIFICATION_TYPE":"U","NORAD_CAT_ID":59536,"ELEMENT_SET_NO":999,"REV_AT_EPOCH":7409,"BSTAR":0.00013022,"MEAN_MOTION_DOT":3.323e-5,"MEAN_MOTION_DDOT":0},{"OBJECT_NAME":"STARLINK-31737","OBJECT_ID":"2024-074D","EPOCH":"2025-08-12T23:11:10.293504","MEAN_MOTION":15.27574324,"ECCENTRICITY":0.0001356,"INCLINATION":43.0012,"RA_OF_ASC_NODE":82.2122,"ARG_OF_PERICENTER":286.5211,"MEAN_ANOMALY":73.5492,"EPHEMERIS_TYPE":0,"CLASSIFICATION_TYPE":"U","NORAD_CAT_ID":59537,"ELEMENT_SET_NO":999,"REV_AT_EPOCH":7409,"BSTAR":1.9438e-5,"MEAN_MOTION_DOT":2.73e-6,"MEAN_MOTION_DDOT":0},{"OBJECT_NAME":"STARLINK-31725","OBJECT_ID":"2024-074E","EPOCH":"2025-08-13T13:26:09.742272","MEAN_MOTION":15.27571904,"ECCENTRICITY":0.0001676,"INCLINATION":43.0041,"RA_OF_ASC_NODE":68.2611,"ARG_OF_PERICENTER":263.4374,"MEAN_ANOMALY":96.6287,"EPHEMERIS_TYPE":0,"CLASSIFICATION_TYPE":"U","NORAD_CAT_ID":59538,"ELEMENT_SET_NO":999,"REV_AT_EPOCH":7430,"BSTAR":-0.00017899,"MEAN_MOTION_DOT":-5.183e-5,"MEAN_MOTION_DDOT":0},{"OBJECT_NAME":"STARLINK-31539","OBJECT_ID":"2024-074F","EPOCH":"2025-08-12T23:27:49.269312","MEAN_MOTION":15.27580094,"ECCENTRICITY":0.0001332,"INCLINATION":43.0054,"RA_OF_ASC_NODE":82.298,"ARG_OF_PERICENTER":289.8217,"MEAN_ANOMALY":70.2491,"EPHEMERIS_TYPE":0,"CLASSIFICATION_TYPE":"U","NORAD_CAT_ID":59539,"ELEMENT_SET_NO":999,"REV_AT_EPOCH":7409,"BSTAR":-6.1019e-5,"MEAN_MOTION_DOT":-1.941e-5,"MEAN_MOTION_DDOT":0},{"OBJECT_NAME":"STARLINK-31397","OBJECT_ID":"2024-074G","EPOCH":"2025-08-13T07:38:57.095232","MEAN_MOTION":15.27575417,"ECCENTRICITY":0.0001489,"INCLINATION":43.0055,"RA_OF_ASC_NODE":80.5541,"ARG_OF_PERICENTER":275.2427,"MEAN_ANOMALY":84.8255,"EPHEMERIS_TYPE":0,"CLASSIFICATION_TYPE":"U","NORAD_CAT_ID":59540,"ELEMENT_SET_NO":999,"REV_AT_EPOCH":7414,"BSTAR":2.0137e-5,"MEAN_MOTION_DOT":2.92e-6,"MEAN_MOTION_DDOT":0}]
