STARLINK-31376          
1 59524U 24073P   25225.58335648  .00272576  00000+0  37200-2 0  9991
2 59524  42.9917  42.8127 0024471 296.5739 257.4716 15.55468340  5875
STARLINK-31538          
1 59525U 24073Q   25225.53719950  .00003341  00000+0  13088-3 0  9990
2 59525  43.0000  53.3611 0001634 291.4948  68.5730 15.27582908 74349
STARLINK-31564          
1 59526U 24073R   25225.52948942  .00001036  00000+0  47154-4 0  9996
2 59526  43.0011  53.3024 0001458 266.9703  93.0982 15.27578299 74340
STARLINK-31452          
1 59527U 24073S   25225.57318074 -.00001074  00000+0 -29503-4 0  9991
2 59527  43.0040  53.6291 0001199 270.6106  89.4608 15.27572728 74348
STARLINK-31618          
1 59528U 24073T   25225.55474697  .00097126  00000+0  30080-2 0  9995
2 59528  42.9999  51.7681 0006154 267.6985  92.3164 15.32400717 74365
STARLINK-31513          
1 59529U 24073U   25225.50569544  .00000059  00000+0  11689-4 0  9992
2 59529  43.0044  50.4855 0001647 279.1873  80.8792 15.27576320 74372
STARLINK-31392          
1 59530U 24073V   25225.55518720 -.00000532  00000+0 -98054-5 0  9999
2 59530  43.0007  53.4904 0001388 268.7250  91.3443 15.27575798 74341
STARLINK-31619          
1 59531U 24073W   25225.21411853  .00001591  00000+0  67318-4 0  9994
2 59531  43.0007  55.2356 0001682 264.3499  95.7161 15.27579246 75413
STARLINK-31624          
1 59532U 24073X   25225.44785350  .01080090  00000+0  59179-2 0  9992
2 59532  42.9934  22.1278 0019076 324.4309  65.3666 15.76327762 75883
STARLINK-31509          
1 59533U 24073Y   25225.58089372  .00003481  00000+0  13601-3 0  9998
2 59533  43.0030  53.7003 0001201 281.1848  78.8868 15.27567951 74342
STARLINK-31734          
1 59534U 24074A   25225.25978114  .00002391  00000+0  96377-4 0  9996
2 59534  43.0009  69.7303 0001194 262.0283  98.0433 15.27574789 74261
STARLINK-31738          
1 59535U 24074B   25225.27679179  .00005164  00000+0  19694-3 0  9995
2 59535  42.9976  76.6955 0001180   3.8876 356.1985 15.27597263 74180
STARLINK-31721          
1 59536U 24074C   25224.95194953  .00003323  00000+0  13022-3 0  9996
2 59536  43.0028  82.1021 0001743 296.5589  63.5084 15.27582018 74095
STARLINK-31737          
1 59537U 24074D   25224.96609136  .00000273  00000+0  19438-4 0  9991
2 59537  43.0012  82.2122 0001356 286.5211  73.5492 15.27574324 74098
STARLINK-31725          
1 59538U 24074E   25225.55983498 -.00005183  00000+0 -17899-3 0  9999
2 59538  43.0041  68.2611 0001676 263.4374  96.6287 15.27571904 74300
STARLINK-31539          
1 59539U 24074F   25224.97765358 -.00001941  00000+0 -61019-4 0  9990
2 59539  43.0054  82.2980 0001332 289.8217  70.2491 15.27580094 74098
STARLINK-31397          
1 59540U 24074G   25225.31871638  .00000292  00000+0  20137-4 0  9992
2 59540  43.0055  80.5541 0001489 275.2427  84.8255 15.27575417 74148
